{
    "links": {
        "self": "http://www.neowsapp.com/rest/v1/neo/3780774?api_key=iIulBulltgU6a56xZRHN4H3l9WmuAYTsLGpBGhQ2"
    },
    "id": "3780774",
    "neo_reference_id": "3780774",
    "name": "(2017 QM2)",
    "designation": "2017 QM2",
    "nasa_jpl_url": "http://ssd.jpl.nasa.gov/sbdb.cgi?sstr=3780774",
    "absolute_magnitude_h": 24.3,
    "estimated_diameter": {
        "kilometers": {
            "estimated_diameter_min": 0.0366906138,
            "estimated_diameter_max": 0.0820427065
        },
        "meters": {
            "estimated_diameter_min": 36.6906137531,
            "estimated_diameter_max": 82.0427064882
        },
        "miles": {
            "estimated_diameter_min": 0.0227984834,
            "estimated_diameter_max": 0.0509789586
        },
        "feet": {
            "estimated_diameter_min": 120.3760332259,
            "estimated_diameter_max": 269.1689931548
        }
    },
    "is_potentially_hazardous_asteroid": false,
    "close_approach_data": [
        {
            "close_approach_date": "2017-08-15",
            "close_approach_date_full": "2017-Aug-15 22:17",
            "epoch_date_close_approach": 1502835420000,
            "relative_velocity": {
                "kilometers_per_second": "4.2371030516",
                "kilometers_per_hour": "15253.5709856448",
                "miles_per_hour": "9477.9758160525"
            },
            "miss_distance": {
                "astronomical": "0.2093155016",
                "lunar": "81.4237301224",
                "kilometers": "31313153.197341592",
                "miles": "19457091.1595222896"
            },
            "orbiting_body": "Earth"
        }
    ],
    "orbital_data": {
        "orbit_id": "1",
        "orbit_determination_date": "2017-08-20 14:12:05",
        "first_observation_date": "2017-08-17",
        "last_observation_date": "2017-08-20",
        "data_arc_in_days": 3,
        "observations_used": 9,
        "orbit_uncertainty": "9",
        "minimum_orbit_intersection": ".192242",
        "jupiter_tisserand_invariant": "4.022",
        "epoch_osculation": "2457983.5",
        "eccentricity": ".323730745021935",
        "semi_major_axis": "1.779467364123585",
        "inclination": "7.314570658195173",
        "ascending_node_longitude": "330.3954315204663",
        "orbital_period": "867.028688715188",
        "perihelion_distance": "1.203399068593638",
        "perihelion_argument": "346.5283814717511",
        "aphelion_distance": "2.355535659653532",
        "perihelion_time": "2457969.806063669748",
        "mean_anomaly": "5.685875384580413",
        "mean_motion": ".4152111743078171",
        "equinox": "J2000",
        "orbit_class": {
            "orbit_class_type": "AMO",
            "orbit_class_description": "Near-Earth asteroid orbits similar to that of 1221 Amor",
            "orbit_class_range": "1.017 AU < q (perihelion) < 1.3 AU"
        }
    },
    "is_sentry_object": false
}